{
  "type": "FeatureCollection",
  "name": "Reserved property integrity — Été 漢字",
  "features": [
    {
      "type": "Feature",
      "id": "asset-reserved-001",
      "properties": {
        "ID": 0,
        "Date": null,
        "TimeZone": "source-zone-not-workspace-zone",
        "Latitude": "surveyed latitude text",
        "Longitude": -0,
        "symbol_color": "ultraviolet-custom",
        "symbol_shape": "triangle-custom",
        "Source ID": "pre-existing alias",
        "name": "Café rivière 🌊",
        "inspected_at": "2026-08-13T09:15:00-06:00",
        "field_01": "A01",
        "field_02": "A02",
        "field_03": "A03",
        "field_04": "A04",
        "field_05": "A05",
        "field_06": "A06",
        "field_07": "A07",
        "field_08": "A08",
        "field_09": "A09",
        "field_10": "A10",
        "field_11": "A11",
        "field_12": "A12"
      },
      "geometry": {
        "type": "Point",
        "coordinates": [-114.0719, 51.0447, 1048.25]
      }
    },
    {
      "type": "Feature",
      "id": 0,
      "properties": {
        "ID": "line-source-id",
        "Date": "",
        "TimeZone": "UTC+05:45",
        "symbol_color": null,
        "symbol_shape": "",
        "name": "Ligne Montréal α",
        "nullable_note": null,
        "field_12": "L12"
      },
      "geometry": {
        "type": "LineString",
        "coordinates": [
          [-73.5673, 45.5017],
          [-73.55, 45.51],
          [-73.53, 45.52]
        ]
      }
    },
    {
      "type": "Feature",
      "id": "polygon-reserved-003",
      "properties": {
        "ID": null,
        "Date": "2026-08-13",
        "TimeZone": "America/Edmonton",
        "symbol_color": "#12345678",
        "symbol_shape": false,
        "name": "Polygone avec trou",
        "field_12": "P12"
      },
      "geometry": {
        "type": "Polygon",
        "coordinates": [
          [[-114.10, 51.03], [-114.02, 51.03], [-114.02, 51.08], [-114.10, 51.08], [-114.10, 51.03]],
          [[-114.08, 51.045], [-114.04, 51.045], [-114.04, 51.065], [-114.08, 51.065], [-114.08, 51.045]]
        ]
      }
    }
  ]
}
